{"type": "FeatureCollection", "features": [{"type": "Feature", "properties": {"norad_id": 36828, "name": "BEIDOU-2 IGSO-1 (C06)", "group": "beidou", "lat": -8.441239377932506, "lon": -9.162402810604432, "alt_km": 35590.94518736488, "timestamp": "2025-12-06T11:28:11.327782+00:00", "meta": {"OBJECT_NAME": "BEIDOU-2 IGSO-1 (C06)", "OBJECT_ID": "2010-036A", "EPOCH": "2025-12-05T10:47:07.730592", "MEAN_MOTION": 1.00278097, "ECCENTRICITY": 0.00512452, "INCLINATION": 54.2848, "RA_OF_ASC_NODE": 164.7141, "ARG_OF_PERICENTER": 215.7912, "MEAN_ANOMALY": 323.5719, "EPHEMERIS_TYPE": 0, "CLASSIFICATION_TYPE": "U", "NORAD_CAT_ID": 36828, "ELEMENT_SET_NO": 999, "REV_AT_EPOCH": 5615, "BSTAR": 0, "MEAN_MOTION_DOT": -4.5e-07, "MEAN_MOTION_DDOT": 0}, "tle": {"line1": "1 36828U 10036A   25339.44939503 -.00000045  00000+0  00000+0 0  9994", "line2": "2 36828  54.2848 164.7141 0051245 215.7912 323.5719  1.00278097 56159"}}, "geometry": {"type": "Point", "coordinates": [-9.162402810604432, -8.441239377932506]}}, {"type": "Feature", "properties": {"norad_id": 37210, "name": "BEIDOU-2 G4 (C04)", "group": "beidou", "lat": -1.1759356058216721, "lon": 47.72527158430478, "alt_km": 35825.910960983994, "timestamp": "2025-12-06T11:28:11.327805+00:00", "meta": {"OBJECT_NAME": "BEIDOU-2 G4 (C04)", "OBJECT_ID": "2010-057A", "EPOCH": "2025-12-05T21:18:21.305376", "MEAN_MOTION": 1.00271317, "ECCENTRICITY": 0.00109569, "INCLINATION": 3.1668, "RA_OF_ASC_NODE": 69.955, "ARG_OF_PERICENTER": 189.3794, "MEAN_ANOMALY": 295.2635, "EPHEMERIS_TYPE": 0, "CLASSIFICATION_TYPE": "U", "NORAD_CAT_ID": 37210, "ELEMENT_SET_NO": 999, "REV_AT_EPOCH": 5535, "BSTAR": 0, "MEAN_MOTION_DOT": -1.04e-06, "MEAN_MOTION_DDOT": 0}, "tle": {"line1": "1 37210U 10057A   25339.88774659 -.00000104  00000+0  00000+0 0  9996", "line2": "2 37210   3.1668  69.9550 0010956 189.3794 295.2635  1.00271317 55357"}}, "geometry": {"type": "Point", "coordinates": [47.72527158430478, -1.1759356058216721]}}, {"type": "Feature", "properties": {"norad_id": 37256, "name": "BEIDOU-2 IGSO-2 (C07)", "group": "beidou", "lat": 47.03897264123947, "lon": -10.149137819146295, "alt_km": 35924.25654694221, "timestamp": "2025-12-06T11:28:11.327820+00:00", "meta": {"OBJECT_NAME": "BEIDOU-2 IGSO-2 (C07)", "OBJECT_ID": "2010-068A", "EPOCH": "2025-12-03T17:22:36.030432", "MEAN_MOTION": 1.0028871, "ECCENTRICITY": 0.00492335, "INCLINATION": 47.9043, "RA_OF_ASC_NODE": 274.2613, "ARG_OF_PERICENTER": 216.1442, "MEAN_ANOMALY": 310.2369, "EPHEMERIS_TYPE": 0, "CLASSIFICATION_TYPE": "U", "NORAD_CAT_ID": 37256, "ELEMENT_SET_NO": 999, "REV_AT_EPOCH": 5483, "BSTAR": 0, "MEAN_MOTION_DOT": -2.25e-06, "MEAN_MOTION_DDOT": 0}, "tle": {"line1": "1 37256U 10068A   25337.72402813 -.00000225  00000+0  00000+0 0  9993", "line2": "2 37256  47.9043 274.2613 0049233 216.1442 310.2369  1.00288710 54839"}}, "geometry": {"type": "Point", "coordinates": [-10.149137819146295, 47.03897264123947]}}, {"type": "Feature", "properties": {"norad_id": 37384, "name": "BEIDOU-2 IGSO-3 (C08)", "group": "beidou", "lat": -39.8987965319761, "lon": 15.812024341162102, "alt_km": 35880.51939317346, "timestamp": "2025-12-06T11:28:11.327834+00:00", "meta": {"OBJECT_NAME": "BEIDOU-2 IGSO-3 (C08)", "OBJECT_ID": "2011-013A", "EPOCH": "2025-12-03T14:52:09.520896", "MEAN_MOTION": 1.00272128, "ECCENTRICITY": 0.00353922, "INCLINATION": 62.1308, "RA_OF_ASC_NODE": 42.005, "ARG_OF_PERICENTER": 186.5359, "MEAN_ANOMALY": 174.9093, "EPHEMERIS_TYPE": 0, "CLASSIFICATION_TYPE": "U", "NORAD_CAT_ID": 37384, "ELEMENT_SET_NO": 999, "REV_AT_EPOCH": 5370, "BSTAR": 0, "MEAN_MOTION_DOT": -1.99e-06, "MEAN_MOTION_DDOT": 0}, "tle": {"line1": "1 37384U 11013A   25337.61955464 -.00000199  00000+0  00000+0 0  9999", "line2": "2 37384  62.1308  42.0050 0035392 186.5359 174.9093  1.00272128 53708"}}, "geometry": {"type": "Point", "coordinates": [15.812024341162102, -39.8987965319761]}}, {"type": "Feature", "properties": {"norad_id": 37763, "name": "BEIDOU-2 IGSO-4 (C09)", "group": "beidou", "lat": 5.76007775847554, "lon": -16.72420464737889, "alt_km": 35437.62814200562, "timestamp": "2025-12-06T11:28:11.327847+00:00", "meta": {"OBJECT_NAME": "BEIDOU-2 IGSO-4 (C09)", "OBJECT_ID": "2011-038A", "EPOCH": "2025-12-01T12:32:09.960864", "MEAN_MOTION": 1.00284074, "ECCENTRICITY": 0.01487808, "INCLINATION": 54.5808, "RA_OF_ASC_NODE": 167.4476, "ARG_OF_PERICENTER": 230.2031, "MEAN_ANOMALY": 315.0387, "EPHEMERIS_TYPE": 0, "CLASSIFICATION_TYPE": "U", "NORAD_CAT_ID": 37763, "ELEMENT_SET_NO": 999, "REV_AT_EPOCH": 5266, "BSTAR": 0, "MEAN_MOTION_DOT": 1.01e-06, "MEAN_MOTION_DDOT": 0}, "tle": {"line1": "1 37763U 11038A   25335.52233751  .00000101  00000+0  00000+0 0  9995", "line2": "2 37763  54.5808 167.4476 0148780 230.2031 315.0387  1.00284074 52664"}}, "geometry": {"type": "Point", "coordinates": [-16.72420464737889, 5.76007775847554]}}, {"type": "Feature", "properties": {"norad_id": 37948, "name": "BEIDOU-2 IGSO-5 (C10)", "group": "beidou", "lat": 42.703663980829376, "lon": -30.12670161684762, "alt_km": 36200.73939560687, "timestamp": "2025-12-06T11:28:11.327861+00:00", "meta": {"OBJECT_NAME": "BEIDOU-2 IGSO-5 (C10)", "OBJECT_ID": "2011-073A", "EPOCH": "2025-12-05T19:16:03.972000", "MEAN_MOTION": 1.00291877, "ECCENTRICITY": 0.01105894, "INCLINATION": 48.0339, "RA_OF_ASC_NODE": 273.9433, "ARG_OF_PERICENTER": 222.1593, "MEAN_ANOMALY": 320.3155, "EPHEMERIS_TYPE": 0, "CLASSIFICATION_TYPE": "U", "NORAD_CAT_ID": 37948, "ELEMENT_SET_NO": 999, "REV_AT_EPOCH": 5119, "BSTAR": 0, "MEAN_MOTION_DOT": -1.79e-06, "MEAN_MOTION_DDOT": 0}, "tle": {"line1": "1 37948U 11073A   25339.80282375 -.00000179  00000+0  00000+0 0  9996", "line2": "2 37948  48.0339 273.9433 0110589 222.1593 320.3155  1.00291877 51199"}}, "geometry": {"type": "Point", "coordinates": [-30.12670161684762, 42.703663980829376]}}, {"type": "Feature", "properties": {"norad_id": 38091, "name": "BEIDOU-2 G5 (C05)", "group": "beidou", "lat": -2.565182655673872, "lon": -53.73632762818649, "alt_km": 35734.11216924807, "timestamp": "2025-12-06T11:28:11.327873+00:00", "meta": {"OBJECT_NAME": "BEIDOU-2 G5 (C05)", "OBJECT_ID": "2012-008A", "EPOCH": "2025-12-05T21:34:38.508384", "MEAN_MOTION": 1.00273116, "ECCENTRICITY": 0.00124802, "INCLINATION": 3.0913, "RA_OF_ASC_NODE": 70.7296, "ARG_OF_PERICENTER": 226.0355, "MEAN_ANOMALY": 160.5592, "EPHEMERIS_TYPE": 0, "CLASSIFICATION_TYPE": "U", "NORAD_CAT_ID": 38091, "ELEMENT_SET_NO": 999, "REV_AT_EPOCH": 5043, "BSTAR": 0, "MEAN_MOTION_DOT": 6.4e-07, "MEAN_MOTION_DDOT": 0}, "tle": {"line1": "1 38091U 12008A   25339.89905681  .00000064  00000+0  00000+0 0  9998", "line2": "2 38091   3.0913  70.7296 0012480 226.0355 160.5592  1.00273116 50439"}}, "geometry": {"type": "Point", "coordinates": [-53.73632762818649, -2.565182655673872]}}, {"type": "Feature", "properties": {"norad_id": 38250, "name": "BEIDOU-2 M3 (C11)", "group": "beidou", "lat": 30.91172235489567, "lon": -24.757758264997975, "alt_km": 21563.051385449777, "timestamp": "2025-12-06T11:28:11.327885+00:00", "meta": {"OBJECT_NAME": "BEIDOU-2 M3 (C11)", "OBJECT_ID": "2012-018A", "EPOCH": "2025-12-04T06:32:53.001888", "MEAN_MOTION": 1.86229694, "ECCENTRICITY": 0.0024462, "INCLINATION": 55.9274, "RA_OF_ASC_NODE": 311.4423, "ARG_OF_PERICENTER": 273.73, "MEAN_ANOMALY": 85.9745, "EPHEMERIS_TYPE": 0, "CLASSIFICATION_TYPE": "U", "NORAD_CAT_ID": 38250, "ELEMENT_SET_NO": 999, "REV_AT_EPOCH": 9231, "BSTAR": 0, "MEAN_MOTION_DOT": -6.8e-07, "MEAN_MOTION_DDOT": 0}, "tle": {"line1": "1 38250U 12018A   25338.27283567 -.00000068  00000+0  00000+0 0  9994", "line2": "2 38250  55.9274 311.4423 0024462 273.7300  85.9745  1.86229694 92310"}}, "geometry": {"type": "Point", "coordinates": [-24.757758264997975, 30.91172235489567]}}, {"type": "Feature", "properties": {"norad_id": 38251, "name": "BEIDOU-2 M4 (C12)", "group": "beidou", "lat": 55.336629443056474, "lon": 29.668666882937263, "alt_km": 21564.2150600593, "timestamp": "2025-12-06T11:28:11.327896+00:00", "meta": {"OBJECT_NAME": "BEIDOU-2 M4 (C12)", "OBJECT_ID": "2012-018B", "EPOCH": "2025-12-05T06:41:27.869856", "MEAN_MOTION": 1.86229397, "ECCENTRICITY": 0.00155808, "INCLINATION": 55.8281, "RA_OF_ASC_NODE": 310.638, "ARG_OF_PERICENTER": 277.012, "MEAN_ANOMALY": 82.7935, "EPHEMERIS_TYPE": 0, "CLASSIFICATION_TYPE": "U", "NORAD_CAT_ID": 38251, "ELEMENT_SET_NO": 999, "REV_AT_EPOCH": 9233, "BSTAR": 0, "MEAN_MOTION_DOT": -6.9e-07, "MEAN_MOTION_DDOT": 0}, "tle": {"line1": "1 38251U 12018B   25339.27879479 -.00000069  00000+0  00000+0 0  9990", "line2": "2 38251  55.8281 310.6380 0015580 277.0120  82.7935  1.86229397 92337"}}, "geometry": {"type": "Point", "coordinates": [29.668666882937263, 55.336629443056474]}}, {"type": "Feature", "properties": {"norad_id": 38775, "name": "BEIDOU-2 M6 (C14)", "group": "beidou", "lat": -55.64772840222644, "lon": -7.1610527820872525, "alt_km": 21523.04016604236, "timestamp": "2025-12-06T11:28:11.327908+00:00", "meta": {"OBJECT_NAME": "BEIDOU-2 M6 (C14)", "OBJECT_ID": "2012-050B", "EPOCH": "2025-12-03T09:05:34.856160", "MEAN_MOTION": 1.86230686, "ECCENTRICITY": 0.00108899, "INCLINATION": 56.3706, "RA_OF_ASC_NODE": 69.3782, "ARG_OF_PERICENTER": 346.3356, "MEAN_ANOMALY": 13.638, "EPHEMERIS_TYPE": 0, "CLASSIFICATION_TYPE": "U", "NORAD_CAT_ID": 38775, "ELEMENT_SET_NO": 999, "REV_AT_EPOCH": 8966, "BSTAR": 0, "MEAN_MOTION_DOT": -5e-07, "MEAN_MOTION_DDOT": 0}, "tle": {"line1": "1 38775U 12050B   25337.37887565 -.00000050  00000+0  00000+0 0  9991", "line2": "2 38775  56.3706  69.3782 0010889 346.3356  13.6380  1.86230686 89660"}}, "geometry": {"type": "Point", "coordinates": [-7.1610527820872525, -55.64772840222644]}}]}